ORBCOMM FM37            
1 33064U 08031E   25058.61795672  .00005174  00000+0  71919-3 0  9997
2 33064  48.4391 144.3089 0006687 264.4456 247.3364 14.79072851897821
ORBCOMM FM40            
1 33065U 08031F   25058.68850502  .00006176  00000+0  81256-3 0  9997
2 33065  48.4409 129.7724 0008053 275.9312 223.1276 14.81122973897921
VESSELSAT 1             
1 37840U 11058C   25058.58261118  .00000547  00000+0  15368-3 0  9990
2 37840  19.9630  37.0884 0013783  61.5271 298.6520 14.11315111691036
ORBCOMM FM109           
1 40086U 14040A   25058.61398697  .00002521  00000+0  58157-3 0  9994
2 40086  47.0021 173.6883 0002484 216.8815 143.1900 14.57856989565072
ORBCOMM FM107           
1 40087U 14040B   25058.64736064  .00002379  00000+0  55013-3 0  9991
2 40087  47.0038 174.5311 0001332 186.9852 173.1015 14.57920234565150
ORBCOMM FM106           
1 40088U 14040C   25058.88521542  .00004024  00000+0  70956-3 0  9993
2 40088  47.0613   4.2174 0017669 280.1311  79.7587 14.68974063567409
ORBCOMM FM111           
1 40089U 14040D   25058.82117605  .00007531  00000+0  88346-3 0  9997
2 40089  47.0000 229.2716 0029491  28.1753 332.0732 14.85312143573966
ORBCOMM FM104           
1 40090U 14040E   25058.72254618  .00002206  00000+0  52967-3 0  9998
2 40090  47.0032 206.4814 0015695  65.1172 295.1343 14.56363488564666
